{"fetched_at":"2026-03-29T16:36:15Z","count":15609,"tles":[{"name":"STARLINK-35816","line1":"1 66499U 25263Q   26087.70748668  .00025123  00000+0  91888-3 0  9990","line2":"2 66499  42.9953 243.6205 0001045 258.6357 101.4377 15.27597802 21806","category":"Starlink"}]}