{
  "norad_id": 66499,
  "name": "STARLINK-35816",
  "history": [
    {
      "epoch": "2026-03-28T16:58:46.849152Z",
      "apogee_km": 483.7127793417412,
      "perigee_km": 482.27880258843015,
      "latitude_deg": -1.0608540638213091e-05,
      "longitude_deg": 162.801217341378,
      "height_km": 482.91290800960513,
      "semi_major_axis_km": 6861.132790965085,
      "eccentricity": 0.0001045,
      "inclination_deg": 42.9953,
      "raan_deg": 243.6205,
      "arg_perigee_deg": 258.6357,
      "mean_anomaly_deg": 101.4377,
      "mean_motion_rev_day": 15.27597802
    }
  ]
}